NORAD_CAT_ID,OBJECT_NAME,OBJECT_TYPE,EPOCH,MEAN_MOTION,ECCENTRICITY,INCLINATION,RA_OF_ASC_NODE,ARG_OF_PERICENTER,MEAN_ANOMALY,BSTAR,MEAN_MOTION_DOT,MEAN_MOTION_DDOT,TLE_LINE0,TLE_LINE1,TLE_LINE2,SEMIMAJOR_AXIS,PERIOD,APOGEE,PERIGEE,DECAYED
49147.0,STARLINK-3071,PAYLOAD,2021-12-14 14:00:01,15.69684344,0.0003693,69.9993,229.7815,268.7759,185.8138,0.00065767,0.00078832,0.0,0 STARLINK-3071,1 49147U 21082T   21348.58334491  .00078832  00000-0  65767-3 0  9995,2 49147  69.9993 229.7815 0003693 268.7759 185.8138 15.69684344 15629,6737.937,91.738,362.29,357.314,0.0
49147.0,STARLINK-3071,PAYLOAD,2021-12-14 22:00:00,15.69731673,0.0003776,69.9995,228.8447,272.7124,264.9675,-3.1795e-06,-5.92e-06,0.0,0 STARLINK-3071,1 49147U 21082T   21348.91667824 -.00000592  00000-0 -31795-5 0  9997,2 49147  69.9995 228.8447 0003776 272.7124 264.9675 15.69731673  3692,6737.802,91.735,362.211,357.12300000000016,0.0
49147.0,STARLINK-3071,PAYLOAD,2021-12-15 06:00:00,15.69764732,0.0003795,69.9989,227.9076,273.7486,347.0374,-0.00030854,-0.0003691,0.0,0 STARLINK-3071,1 49147U 21082T   21349.25001157 -.00036910  00000-0 -30854-3 0  9992,2 49147  69.9989 227.9076 0003795 273.7486 347.0374 15.69764732 15735,6737.706999999999,91.733,362.129,357.015,0.0
49147.0,STARLINK-3071,PAYLOAD,2021-12-15 14:22:36,15.69733128,0.0003779,69.9991,226.9266,267.5655,164.9553,0.00057088,0.00068455,0.0,0 STARLINK-3071,1 49147U 21082T   21349.59902778  .00068455  00000-0  57088-3 0  9993,2 49147  69.9991 226.9266 0003779 267.5655 164.9553 15.69733128  3680,6737.7980000000025,91.735,362.209,357.116,0.0
49147.0,STARLINK-3071,PAYLOAD,2021-12-15 22:00:01,15.69771985,0.0003754,69.999,226.0338,272.0218,155.1028,-2.7417e-05,-3.487e-05,0.0,0 STARLINK-3071,1 49147U 21082T   21349.91668981 -.00003487  00000-0 -27417-4 0  9994,2 49147  69.9990 226.0338 0003754 272.0218 155.1028 15.69771985  3681,6737.686,91.733,362.081,357.022,0.0
49147.0,STARLINK-3071,PAYLOAD,2021-12-16 06:00:00,15.6938395,0.0003612,69.9994,225.1023,266.7668,243.3679,0.0047284,0.00597372,0.0,0 STARLINK-3071,1 49147U 21082T   21350.25001157  .00597372  00000-0  47284-2 0  9990,2 49147  69.9994 225.1023 0003612 266.7668 243.3679 15.69383950 15886,6738.797,91.756,363.096,358.228,0.0
49147.0,STARLINK-3071,PAYLOAD,2021-12-16 14:00:01,15.69720411,0.0003463,69.9991,224.1599,267.4936,325.8118,0.00065849,0.00079047,0.0,0 STARLINK-3071,1 49147U 21082T   21350.58334491  .00079047  00000-0  65849-3 0  9998,2 49147  69.9991 224.1599 0003463 267.4936 325.8118 15.69720411  3675,6737.834,91.736,362.032,357.366,0.0
49147.0,STARLINK-3071,PAYLOAD,2021-12-16 22:00:01,15.69767351,0.0003466,69.9993,223.223,272.5151,43.9814,-3.4337e-05,-4.312e-05,0.0,0 STARLINK-3071,1 49147U 21082T   21350.91668981 -.00004312  00000-0 -34337-4 0  9993,2 49147  69.9993 223.2230 0003466 272.5151  43.9814 15.69767351  3684,6737.7,91.733,361.9,357.22900000000016,0.0
49147.0,STARLINK-3071,PAYLOAD,2021-12-17 00:00:00,15.69772101,0.000343,69.9993,222.9888,274.2918,152.925,-0.00013454,-0.00016257,0.0,0 STARLINK-3071,1 49147U 21082T   21351.00001157 -.00016257  00000-0 -13454-3 0  9997,2 49147  69.9993 222.9888 0003430 274.2918 152.9250 15.69772101 16004,6737.686,91.733,361.862,357.24,0.0
49147.0,STARLINK-3071,PAYLOAD,2021-12-17 22:00:00,15.69734977,0.0003299,69.9986,220.4122,272.637,293.1819,0.00023663,0.00028113,0.0,0 STARLINK-3071,1 49147U 21082T   21351.91667824  .00028113  00000-0  23663-3 0  9991,2 49147  69.9986 220.4122 0003299 272.6370 293.1819 15.69734977  3696,6737.792,91.735,361.88,357.434,0.0
49147.0,STARLINK-3071,PAYLOAD,2021-12-18 06:00:00,15.698097400000002,0.0003333,69.9983,219.4751,272.7369,16.192,-0.0010613,-0.00125346,0.0,0 STARLINK-3071,1 49147U 21082T   21352.25001157 -.00125346  00000-0 -10613-2 0  9998,2 49147  69.9983 219.4751 0003333 272.7369  16.1920 15.69809740 16205,6737.578,91.731,361.689,357.1980000000001,0.0
49147.0,STARLINK-3071,PAYLOAD,2021-12-18 14:00:01,15.69697035,0.0003461,69.9986,218.5383,267.036,105.0488,0.00057738,0.00069135,0.0,0 STARLINK-3071,1 49147U 21082T   21352.58334491  .00069135  00000-0  57738-3 0  9995,2 49147  69.9986 218.5383 0003461 267.0360 105.0488 15.69697035 16253,6737.901,91.737,362.098,357.434,0.0
49147.0,STARLINK-3071,PAYLOAD,2021-12-18 21:35:46,15.69740688,0.0003678,69.9984,217.6481,268.1141,91.9633,3.4593e-05,3.918e-05,0.0,0 STARLINK-3071,1 49147U 21082T   21352.89984332  .00003918  00000-0  34593-4 0  9996,2 49147  69.9984 217.6481 0003678 268.1141  91.9633 15.69740688 15133,6737.776,91.735,362.119,357.163,0.0
49147.0,STARLINK-3071,PAYLOAD,2021-12-19 06:00:00,15.69778135,0.0003495,69.9982,216.6643,271.9628,266.3297,-0.00035051,-0.00041898,0.0,0 STARLINK-3071,1 49147U 21082T   21353.25001157 -.00041898  00000-0 -35051-3 0  9992,2 49147  69.9982 216.6643 0003495 271.9628 266.3297 15.69778135 16356,6737.669,91.733,361.889,357.17900000000014,0.0
49147.0,STARLINK-3071,PAYLOAD,2021-12-19 14:00:01,15.69782216,0.0003456,69.9982,215.7275,265.7275,355.7082,-0.00011406,-0.00013825,0.0,0 STARLINK-3071,1 49147U 21082T   21353.58334491 -.00013825  00000-0 -11406-3 0  9995,2 49147  69.9982 215.7275 0003456 265.7275 355.7082 15.69782216 16410,6737.656999999997,91.732,361.851,357.194,0.0
49147.0,STARLINK-3071,PAYLOAD,2021-12-19 22:00:00,15.69728201,0.0003236,69.9979,214.7905,272.1898,72.4123,7.2641e-05,8.46e-05,0.0,0 STARLINK-3071,1 49147U 21082T   21353.91667824  .00008460  00000-0  72641-4 0  9997,2 49147  69.9979 214.7905 0003236 272.1898  72.4123 15.69728201  3705,6737.812,91.736,361.857,357.496,0.0
49147.0,STARLINK-3071,PAYLOAD,2021-12-20 14:00:01,15.6980236,0.0003109,69.9979,212.9167,265.4698,245.396,-0.00015452,-0.00018657,0.0,0 STARLINK-3071,1 49147U 21082T   21354.58334491 -.00018657  00000-0 -15452-3 0  9999,2 49147  69.9979 212.9167 0003109 265.4698 245.3960 15.69802360  3694,6737.599,91.731,361.559,357.37,0.0
49147.0,STARLINK-3071,PAYLOAD,2021-12-20 22:00:01,15.697446,0.0003111,69.9981,211.9793,272.4648,321.65,0.00029032,0.0003458,0.0,0 STARLINK-3071,1 49147U 21082T   21354.91668981  .00034580  00000-0  29032-3 0  9990,2 49147  69.9981 211.9793 0003111 272.4648 321.6500 15.69744600 16624,6737.765,91.735,361.726,357.534,0.0
49147.0,STARLINK-3071,PAYLOAD,2021-12-21 06:00:02,15.69808817,0.000328,69.9976,211.0423,270.558,46.6911,-0.0016014,-0.00187632,0.0,0 STARLINK-3071,1 49147U 21082T   21355.25002315 -.00187632  00000-0 -16014-2 0  9995,2 49147  69.9976 211.0423 0003280 270.5580  46.6911 15.69808817 16676,6737.581,91.731,361.656,357.236,0.0
49147.0,STARLINK-3071,PAYLOAD,2021-12-21 14:00:01,15.69661224,0.0003495,69.9978,210.1054,266.2664,134.0276,0.00045717,0.00054521,0.0,0 STARLINK-3071,1 49147U 21082T   21355.58334491  .00054521  00000-0  45717-3 0  9995,2 49147  69.9978 210.1054 0003495 266.2664 134.0276 15.69661224 16722,6738.003000000002,91.74,362.223,357.51300000000015,0.0
49147.0,STARLINK-3071,PAYLOAD,2021-12-21 22:00:00,15.69676196,0.0003522,69.9975,209.1686,272.4273,210.9183,0.00038353,0.00045685,0.0,0 STARLINK-3071,1 49147U 21082T   21355.91667824  .00045685  00000-0  38353-3 0  9990,2 49147  69.9975 209.1686 0003522 272.4273 210.9183 15.69676196  3680,6737.96,91.739,362.199,357.452,0.0
49147.0,STARLINK-3071,PAYLOAD,2021-12-22 14:00:01,15.69731934,0.0003533,69.9977,207.2945,266.1162,23.3753,0.00044076,0.00052699,0.0,0 STARLINK-3071,1 49147U 21082T   21356.58334491  .00052699  00000-0  44076-3 0  9997,2 49147  69.9977 207.2945 0003533 266.1162  23.3753 15.69731934 16885,6737.801,91.735,362.046,357.286,0.0
49147.0,STARLINK-3071,PAYLOAD,2021-12-22 22:00:00,15.6975115,0.000346,69.9979,206.3574,272.3255,100.2972,0.0003954,0.0004726,0.0,0 STARLINK-3071,1 49147U 21082T   21356.91667824  .00047260  00000-0  39540-3 0  9991,2 49147  69.9979 206.3574 0003460 272.3255 100.2972 15.69751150  3703,6737.746,91.734,361.942,357.28,0.0
49147.0,STARLINK-3071,PAYLOAD,2021-12-23 06:00:00,15.69813665,0.0003315,69.9976,205.4205,270.6622,185.1085,-0.00093914,-0.00111146,0.0,0 STARLINK-3071,1 49147U 21082T   21357.25001157 -.00111146  00000-0 -93914-3 0  9992,2 49147  69.9976 205.4205 0003315 270.6622 185.1085 15.69813665 16980,6737.566999999999,91.731,361.666,357.199,0.0
49147.0,STARLINK-3071,PAYLOAD,2021-12-23 14:00:01,15.69748727,0.000355,70.0002,204.4916,271.3108,267.4062,-1.5547000000000002e-05,-2.068e-05,0.0,0 STARLINK-3071,1 49147U 21082T   21357.58334491 -.00002068  00000-0 -15547-4 0  9997,2 49147  70.0002 204.4916 0003550 271.3108 267.4062 15.69748727 17031,6737.753000000002,91.734,362.01,357.226,0.0
49147.0,STARLINK-3071,PAYLOAD,2021-12-23 22:00:00,15.69749127,0.0003212,69.9977,203.5465,273.4364,348.5846,0.00045995,0.00055054,0.0,0 STARLINK-3071,1 49147U 21082T   21357.91667824  .00055054  00000-0  45995-3 0  9993,2 49147  69.9977 203.5465 0003212 273.4364 348.5846 15.69749127 17092,6737.752,91.734,361.781,357.45300000000015,0.0
49147.0,STARLINK-3071,PAYLOAD,2021-12-24 06:00:00,15.69796055,0.000334,69.9974,202.6093,270.7065,74.4545,-0.00090772,-0.00107405,0.0,0 STARLINK-3071,1 49147U 21082T   21358.25001157 -.00107405  00000-0 -90772-3 0  9995,2 49147  69.9974 202.6093 0003340 270.7065  74.4545 15.69796055 17145,6737.618,91.732,361.733,357.232,0.0
49147.0,STARLINK-3071,PAYLOAD,2021-12-24 14:00:01,15.6974731,0.0003496,69.9979,201.6722,266.6378,161.6533,0.00019888,0.00023595,0.0,0 STARLINK-3071,1 49147U 21082T   21358.58334491  .00023595  00000-0  19888-3 0  9995,2 49147  69.9979 201.6722 0003496 266.6378 161.6533 15.69747310 17192,6737.757,91.735,361.978,357.266,0.0
49147.0,STARLINK-3071,PAYLOAD,2021-12-24 22:00:00,15.69728011,0.0003644,69.9981,200.7352,272.9758,238.4531,-0.00021305,-0.00025547,0.0,0 STARLINK-3071,1 49147U 21082T   21358.91667824 -.00025547  00000-0 -21305-3 0  9999,2 49147  69.9981 200.7352 0003644 272.9758 238.4531 15.69728011 17245,6737.812,91.736,362.132,357.222,0.0
